     2              NAVIGATION DATA                         RINEX VERSION / TYPE
CCRINEXN V1.6.0 UX  CDDIS               06-MAY-22 18:31     PGM / RUN BY / DATE 
IGS BROADCAST EPHEMERIS FILE                                COMMENT             
    0.1676D-07  0.2235D-07 -0.1192D-06 -0.1192D-06          ION ALPHA           
    0.1106D+06  0.9830D+05 -0.1311D+06 -0.1966D+06          ION BETA            
    0.931322574615D-09 0.444089209850D-14   503808     2208 DELTA-UTC: A0,A1,T,W
    18                                                      LEAP SECONDS        
                                                            END OF HEADER       
 4 22  5  5 20  0  0.0-0.169962644577D-03 0.341060513165D-11 0.000000000000D+00
    0.165000000000D+03-0.543750000000D+01 0.462126392276D-08-0.282204869077D+01
   -0.299885869026D-06 0.179694569670D-02 0.686198472977D-05 0.515361442757D+04
    0.417600000000D+06-0.558793544769D-08-0.117384677465D+01 0.223517417908D-07
    0.960935921512D+00 0.247593750000D+03-0.296787392146D+01-0.792533012181D-08
    0.225723688012D-09 0.100000000000D+01 0.220800000000D+04 0.000000000000D+00
    0.280000000000D+01 0.000000000000D+00-0.465661287308D-08 0.677000000000D+03
    0.410418000000D+06 0.400000000000D+01 0.000000000000D+00 0.000000000000D+00
 5 22  5  5 20  0  0.0-0.807787291706D-04-0.136424205266D-11 0.000000000000D+00
    0.910000000000D+02-0.744687500000D+02 0.425624871842D-08-0.189212026300D+01
   -0.382401049137D-05 0.595757819247D-02 0.849738717079D-05 0.515371765327D+04
    0.417600000000D+06 0.104308128357D-06-0.229697316862D+01-0.391155481338D-07
    0.960583520639D+00 0.216062500000D+03 0.101551256888D+01-0.772853621027D-08
    0.132148361653D-09 0.100000000000D+01 0.220800000000D+04 0.000000000000D+00
    0.200000000000D+01 0.000000000000D+00-0.111758708954D-07 0.910000000000D+02
    0.410418000000D+06 0.400000000000D+01 0.000000000000D+00 0.000000000000D+00
 6 22  5  5 20  0  0.0 0.292171258479D-03 0.143245415529D-10 0.000000000000D+00
    0.380000000000D+02-0.780625000000D+02 0.406588364609D-08 0.196940062508D+01
   -0.385008752346D-05 0.260364753194D-02 0.369921326637D-05 0.515371841049D+04
    0.417600000000D+06 0.633299350738D-07 0.298565803138D+01-0.242143869400D-07
    0.987222656140D+00 0.317937500000D+03-0.865134684469D+00-0.795247410961D-08
   -0.230009580822D-09 0.100000000000D+01 0.220800000000D+04 0.000000000000D+00
    0.200000000000D+01 0.000000000000D+00 0.372529029846D-08 0.380000000000D+02
    0.410468000000D+06 0.400000000000D+01 0.000000000000D+00 0.000000000000D+00
 7 22  5  5 20  0  0.0 0.321716535837D-03 0.568434188608D-12 0.000000000000D+00
    0.710000000000D+02 0.771875000000D+01 0.477769901034D-08 0.106053334612D+01
    0.488013029099D-06 0.160254098009D-01 0.806897878647D-05 0.515366409111D+04
    0.417600000000D+06-0.227242708206D-06-0.155648418376D+00 0.689178705216D-07
    0.951135188153D+00 0.222250000000D+03-0.227205428141D+01-0.816605443466D-08
   -0.446090010011D-09 0.100000000000D+01 0.220800000000D+04 0.000000000000D+00
    0.200000000000D+01 0.000000000000D+00-0.111758708954D-07 0.710000000000D+02
    0.410418000000D+06 0.400000000000D+01 0.000000000000D+00 0.000000000000D+00
 8 22  5  5 20  0  0.0-0.667744316161D-04-0.159161572810D-11 0.000000000000D+00
    0.550000000000D+02 0.572500000000D+02 0.464197907135D-08-0.236497766748D+01
    0.283867120743D-05 0.743689748924D-02 0.308081507683D-05 0.515375733757D+04
    0.417600000000D+06-0.670552253723D-07 0.191229318209D+01-0.154599547386D-06
    0.963569560266D+00 0.325531250000D+03 0.162468080179D+00-0.818284084817D-08
    0.142148778210D-09 0.100000000000D+01 0.220800000000D+04 0.000000000000D+00
    0.280000000000D+01 0.000000000000D+00 0.512227416039D-08 0.550000000000D+02
    0.410418000000D+06 0.400000000000D+01 0.000000000000D+00 0.000000000000D+00
 9 22  5  5 20  0  0.0-0.338937621564D-03 0.272848410532D-11 0.000000000000D+00
    0.350000000000D+02-0.743750000000D+01 0.479448542385D-08-0.186163079880D+01
   -0.443309545517D-06 0.208133319393D-02 0.696070492268D-05 0.515356644821D+04
    0.417600000000D+06 0.111758708954D-07-0.122746601236D+01 0.968575477600D-07
    0.953956244267D+00 0.241531250000D+03 0.187472894804D+01-0.802569144512D-08
    0.189650756858D-09 0.100000000000D+01 0.220800000000D+04 0.000000000000D+00
    0.200000000000D+01 0.000000000000D+00 0.139698386192D-08 0.350000000000D+02
    0.411006000000D+06 0.400000000000D+01 0.000000000000D+00 0.000000000000D+00
10 22  5  5 20  0  0.0-0.403516925871D-03-0.138697942020D-10 0.000000000000D+00
    0.860000000000D+02-0.575312500000D+02 0.409624205350D-08-0.305007387662D+00
   -0.316649675369D-05 0.757658644579D-02 0.835955142975D-05 0.515368544197D+04
    0.417600000000D+06 0.279396772385D-07-0.225827610494D+01 0.912696123123D-07
    0.973357390688D+00 0.223968750000D+03-0.249368432526D+01-0.786818488434D-08
    0.653598653579D-10 0.100000000000D+01 0.220800000000D+04 0.000000000000D+00
    0.200000000000D+01 0.000000000000D+00 0.232830643654D-08 0.860000000000D+02
    0.412176000000D+06 0.400000000000D+01 0.000000000000D+00 0.000000000000D+00
11 22  5  5 20  0  0.0-0.289338640869D-04 0.545696821064D-11 0.000000000000D+00
    0.630000000000D+02-0.775312500000D+02 0.451161649837D-08-0.244100648558D+01
   -0.406056642532D-05 0.327353831381D-03 0.387802720070D-05 0.515357288551D+04
    0.417600000000D+06-0.521540641785D-07 0.303582056337D+01 0.242143869400D-07
    0.963049450464D+00 0.304500000000D+03 0.286571728259D+01-0.817141180067D-08
   -0.205722854897D-09 0.100000000000D+01 0.220800000000D+04 0.000000000000D+00
    0.200000000000D+01 0.630000000000D+02-0.838190317154D-08 0.630000000000D+02
    0.411847000000D+06 0.400000000000D+01 0.000000000000D+00 0.000000000000D+00
12 22  5  5 20  0  0.0-0.210922211409D-03-0.579802872380D-11 0.000000000000D+00
    0.360000000000D+02 0.814062500000D+02 0.417124517768D-08 0.449651404163D+00
    0.399351119995D-05 0.868714030366D-02 0.884570181370D-05 0.515355963516D+04
    0.417600000000D+06-0.147148966789D-06 0.957092257866D+00 0.130385160446D-07
    0.969558398708D+00 0.213593750000D+03 0.128306958141D+01-0.792675875275D-08
   -0.903609067516D-10 0.100000000000D+01 0.220800000000D+04 0.000000000000D+00
    0.200000000000D+01 0.000000000000D+00-0.125728547573D-07 0.360000000000D+02
    0.410469000000D+06 0.400000000000D+01 0.000000000000D+00 0.000000000000D+00
13 22  5  5 20  0  0.0 0.306313857436D-03 0.670752342558D-11 0.000000000000D+00
    0.600000000000D+01-0.978125000000D+01 0.433589489314D-08-0.280241565136D+01
   -0.426545739174D-06 0.588454317767D-02 0.678375363350D-05 0.515366746521D+04
    0.417600000000D+06 0.558793544769D-08-0.107328799782D+01 0.372529029846D-08
    0.968366410131D+00 0.253093750000D+03 0.922376293132D+00-0.766603360679D-08
    0.208222959036D-09 0.100000000000D+01 0.220800000000D+04 0.000000000000D+00
    0.200000000000D+01 0.000000000000D+00-0.116415321827D-07 0.600000000000D+01
    0.410470000000D+06 0.400000000000D+01 0.000000000000D+00 0.000000000000D+00
14 22  5  5 20  0  0.0-0.106804538518D-03-0.204636307899D-11 0.000000000000D+00
    0.207000000000D+03 0.891875000000D+02 0.450518765915D-08 0.452224640492D+00
    0.464171171188D-05 0.181617552880D-02 0.831671059132D-05 0.515366266441D+04
    0.417600000000D+06 0.149011611938D-07 0.924539625666D+00-0.745058059692D-08
    0.952981275198D+00 0.215843750000D+03 0.307588647365D+01-0.794604527039D-08
   -0.557166065346D-10 0.100000000000D+01 0.220800000000D+04 0.000000000000D+00
    0.200000000000D+01 0.000000000000D+00-0.791624188423D-08 0.207000000000D+03
    0.410471000000D+06 0.400000000000D+01 0.000000000000D+00 0.000000000000D+00
15 22  5  5 20  0  0.0-0.635660253465D-04 0.295585778076D-11 0.000000000000D+00
    0.160000000000D+02-0.138125000000D+02 0.514842873844D-08 0.296170892428D+01
   -0.720843672752D-06 0.140190492384D-01 0.688619911671D-05 0.515377568054D+04
    0.417600000000D+06 0.121071934700D-06-0.133565203006D+01-0.115483999252D-06
    0.929851797202D+00 0.228531250000D+03 0.108940847584D+01-0.796711757671D-08
    0.269296931584D-09 0.100000000000D+01 0.220800000000D+04 0.000000000000D+00
    0.200000000000D+01 0.000000000000D+00-0.107102096081D-07 0.160000000000D+02
    0.410472000000D+06 0.400000000000D+01 0.000000000000D+00 0.000000000000D+00
16 22  5  5 20  0  0.0-0.498232897371D-03-0.341060513165D-11 0.000000000000D+00
    0.560000000000D+02 0.861562500000D+02 0.411302846700D-08-0.141575928822D+01
    0.451132655144D-05 0.127513851039D-01 0.751391053200D-05 0.515364949989D+04
    0.417600000000D+06 0.275671482086D-06 0.975664447609D+00-0.614672899246D-07
    0.969449616119D+00 0.232218750000D+03 0.728699421690D+00-0.773139347214D-08
    0.903609067516D-10 0.100000000000D+01 0.220800000000D+04 0.000000000000D+00
    0.200000000000D+01 0.000000000000D+00-0.102445483208D-07 0.560000000000D+02
    0.410418000000D+06 0.400000000000D+01 0.000000000000D+00 0.000000000000D+00
17 22  5  5 20  0  0.0 0.609025824815D-03 0.477484718431D-11 0.000000000000D+00
    0.116000000000D+03 0.638125000000D+02 0.426660629271D-08-0.240199096365D+01
    0.345893204212D-05 0.135177354095D-01 0.259093940258D-05 0.515354785538D+04
    0.417600000000D+06 0.137835741043D-06 0.199544470548D+01 0.128522515297D-06
    0.978792638985D+00 0.336812500000D+03-0.149465475574D+01-0.788247119371D-08
    0.188579283655D-09 0.100000000000D+01 0.220800000000D+04 0.000000000000D+00
    0.200000000000D+01 0.000000000000D+00-0.111758708954D-07 0.116000000000D+03
    0.410473000000D+06 0.400000000000D+01 0.000000000000D+00 0.000000000000D+00
